[
    {
        "Altitude(m)": 702678.9748357758,
        "Argument of Periapsis(deg)": 0.0022780242373254137,
        "Eccentricity": 0.0,
        "Inclination(deg)": 45.0,
        "Latitude(deg)": 13.101840681002013,
        "Longitude(deg)": -41.74530925540589,
        "Mean Anomaly(deg)": 18.67024332949616,
        "RAAN(deg)": 44.997849611708354,
        "Satellite Name": "Constellation 1 199",
        "Satellite Number": 199,
        "Semi-Major Axis(m)": 7083131.272910544,
        "Time(s)": 38
    },
    {
        "Altitude(m)": 702679.5557572009,
        "Argument of Periapsis(deg)": 0.002337972243570819,
        "Eccentricity": 0.0,
        "Inclination(deg)": 45.0,
        "Latitude(deg)": 13.143871794116984,
        "Longitude(deg)": -41.70423178484333,
        "Mean Anomaly(deg)": 18.73094446974606,
        "RAAN(deg)": 44.99779302254279,
        "Satellite Name": "Constellation 1 199",
        "Satellite Number": 199,
        "Semi-Major Axis(m)": 7083131.272910544,
        "Time(s)": 39
    },
    {
        "Altitude(m)": 702680.1550061587,
        "Argument of Periapsis(deg)": 0.0023979202498162246,
        "Eccentricity": 0.0,
        "Inclination(deg)": 45.0,
        "Latitude(deg)": 13.185894861979287,
        "Longitude(deg)": -41.663138904565365,
        "Mean Anomaly(deg)": 18.791645609995953,
        "RAAN(deg)": 44.99773643337722,
        "Satellite Name": "Constellation 1 199",
        "Satellite Number": 199,
        "Semi-Major Axis(m)": 7083131.272910544,
        "Time(s)": 40
    },
    {
        "Altitude(m)": 702680.7725619144,
        "Argument of Periapsis(deg)": 0.00245786825606163,
        "Eccentricity": 0.0,
        "Inclination(deg)": 45.0,
        "Latitude(deg)": 13.227909855123821,
        "Longitude(deg)": -41.62203056139819,
        "Mean Anomaly(deg)": 18.852346750245864,
        "RAAN(deg)": 44.997679844211646,
        "Satellite Name": "Constellation 1 199",
        "Satellite Number": 199,
        "Semi-Major Axis(m)": 7083131.272910544,
        "Time(s)": 41
    },
    {
        "Altitude(m)": 702681.4084036633,
        "Argument of Periapsis(deg)": 0.002517816262307036,
        "Eccentricity": 0.0,
        "Inclination(deg)": 45.0,
        "Latitude(deg)": 13.269916744055372,
        "Longitude(deg)": -41.58090670213934,
        "Mean Anomaly(deg)": 18.913047890495758,
        "RAAN(deg)": 44.997623255046086,
        "Satellite Name": "Constellation 1 199",
        "Satellite Number": 199,
        "Semi-Major Axis(m)": 7083131.272910544,
        "Time(s)": 42
    },
    {
        "Altitude(m)": 702682.0625105241,
        "Argument of Periapsis(deg)": 0.0025777642685524413,
        "Eccentricity": 0.0,
        "Inclination(deg)": 45.0,
        "Latitude(deg)": 13.311915499248641,
        "Longitude(deg)": -41.53976727355753,
        "Mean Anomaly(deg)": 18.973749030745672,
        "RAAN(deg)": 44.99756666588051,
        "Satellite Name": "Constellation 1 199",
        "Satellite Number": 199,
        "Semi-Major Axis(m)": 7083131.272910544,
        "Time(s)": 43
    },
    {
        "Altitude(m)": 702682.7348615313,
        "Argument of Periapsis(deg)": 0.002637712274797847,
        "Eccentricity": 0.0,
        "Inclination(deg)": 45.0,
        "Latitude(deg)": 13.35390609114776,
        "Longitude(deg)": -41.49861239048985,
        "Mean Anomaly(deg)": 19.034450170995562,
        "RAAN(deg)": 44.99751007671494,
        "Satellite Name": "Constellation 1 199",
        "Satellite Number": 199,
        "Semi-Major Axis(m)": 7083131.272910544,
        "Time(s)": 44
    },
    {
        "Altitude(m)": 702683.4254356598,
        "Argument of Periapsis(deg)": 0.0026976602810432526,
        "Eccentricity": 0.0,
        "Inclination(deg)": 45.0,
        "Latitude(deg)": 13.395888490167167,
        "Longitude(deg)": -41.45744166345342,
        "Mean Anomaly(deg)": 19.095151311245463,
        "RAAN(deg)": 44.997453487549365,
        "Satellite Name": "Constellation 1 199",
        "Satellite Number": 199,
        "Semi-Major Axis(m)": 7083131.272910544,
        "Time(s)": 45
    },
    {
        "Altitude(m)": 702684.1342117896,
        "Argument of Periapsis(deg)": 0.0027576082872886585,
        "Eccentricity": 0.0,
        "Inclination(deg)": 45.0,
        "Latitude(deg)": 13.43786266669012,
        "Longitude(deg)": -41.416255207227586,
        "Mean Anomaly(deg)": 19.155852451495356,
        "RAAN(deg)": 44.997396898383805,
        "Satellite Name": "Constellation 1 199",
        "Satellite Number": 199,
        "Semi-Major Axis(m)": 7083131.272910544,
        "Time(s)": 46
    },
    {
        "Altitude(m)": 702684.8611687407,
        "Argument of Periapsis(deg)": 0.0028175562935340644,
        "Eccentricity": 0.0,
        "Inclination(deg)": 45.0,
        "Latitude(deg)": 13.479828591069554,
        "Longitude(deg)": -41.37505296846567,
        "Mean Anomaly(deg)": 19.216553591745253,
        "RAAN(deg)": 44.99734030921823,
        "Satellite Name": "Constellation 1 199",
        "Satellite Number": 199,
        "Semi-Major Axis(m)": 7083131.272910544,
        "Time(s)": 47
    },
    {
        "Altitude(m)": 702685.6062852406,
        "Argument of Periapsis(deg)": 0.00287750429977947,
        "Eccentricity": 0.0,
        "Inclination(deg)": 45.0,
        "Latitude(deg)": 13.521786233627664,
        "Longitude(deg)": -41.333834893792094,
        "Mean Anomaly(deg)": 19.27725473199516,
        "RAAN(deg)": 44.997283720052664,
        "Satellite Name": "Constellation 1 199",
        "Satellite Number": 199,
        "Semi-Major Axis(m)": 7083131.272910544,
        "Time(s)": 48
    },
    {
        "Altitude(m)": 702686.3695399609,
        "Argument of Periapsis(deg)": 0.002937452306024875,
        "Eccentricity": 0.0,
        "Inclination(deg)": 45.0,
        "Latitude(deg)": 13.563735564655811,
        "Longitude(deg)": -41.29260092980219,
        "Mean Anomaly(deg)": 19.337955872245047,
        "RAAN(deg)": 44.99722713088709,
        "Satellite Name": "Constellation 1 199",
        "Satellite Number": 199,
        "Semi-Major Axis(m)": 7083131.272910544,
        "Time(s)": 49
    },
    {
        "Altitude(m)": 702687.1509114814,
        "Argument of Periapsis(deg)": 0.0029974003122702807,
        "Eccentricity": 0.0,
        "Inclination(deg)": 45.0,
        "Latitude(deg)": 13.605676554414464,
        "Longitude(deg)": -41.25135102306224,
        "Mean Anomaly(deg)": 19.398657012494965,
        "RAAN(deg)": 44.99717054172152,
        "Satellite Name": "Constellation 1 199",
        "Satellite Number": 199,
        "Semi-Major Axis(m)": 7083131.272910544,
        "Time(s)": 50
    },
    {
        "Altitude(m)": 702687.9503783198,
        "Argument of Periapsis(deg)": 0.0030573483185156866,
        "Eccentricity": 0.0,
        "Inclination(deg)": 45.0,
        "Latitude(deg)": 13.647609173133073,
        "Longitude(deg)": -41.21008512010944,
        "Mean Anomaly(deg)": 19.459358152744862,
        "RAAN(deg)": 44.99711395255595,
        "Satellite Name": "Constellation 1 199",
        "Satellite Number": 199,
        "Semi-Major Axis(m)": 7083131.272910544,
        "Time(s)": 51
    },
    {
        "Altitude(m)": 702688.7679189016,
        "Argument of Periapsis(deg)": 0.003117296324761092,
        "Eccentricity": 0.0,
        "Inclination(deg)": 45.0,
        "Latitude(deg)": 13.68953339100969,
        "Longitude(deg)": -41.168803335548695,
        "Mean Anomaly(deg)": 19.520059292994755,
        "RAAN(deg)": 44.99705736339039,
        "Satellite Name": "Constellation 1 199",
        "Satellite Number": 199,
        "Semi-Major Axis(m)": 7083131.272910544,
        "Time(s)": 52
    },
    {
        "Altitude(m)": 702689.6035115967,
        "Argument of Periapsis(deg)": 0.0031772443310064975,
        "Eccentricity": 0.0,
        "Inclination(deg)": 45.0,
        "Latitude(deg)": 13.73144917821182,
        "Longitude(deg)": -41.12750527966481,
        "Mean Anomaly(deg)": 19.580760433244656,
        "RAAN(deg)": 44.997000774224816,
        "Satellite Name": "Constellation 1 199",
        "Satellite Number": 199,
        "Semi-Major Axis(m)": 7083131.272910544,
        "Time(s)": 53
    },
    {
        "Altitude(m)": 702690.4571346903,
        "Argument of Periapsis(deg)": 0.0032371923372519038,
        "Eccentricity": 0.0,
        "Inclination(deg)": 45.0,
        "Latitude(deg)": 13.773356504874918,
        "Longitude(deg)": -41.08619106700429,
        "Mean Anomaly(deg)": 19.64146157349455,
        "RAAN(deg)": 44.99694418505925,
        "Satellite Name": "Constellation 1 199",
        "Satellite Number": 199,
        "Semi-Major Axis(m)": 7083131.272910544,
        "Time(s)": 54
    },
    {
        "Altitude(m)": 702691.3287663844,
        "Argument of Periapsis(deg)": 0.0032971403434973088,
        "Eccentricity": 0.0,
        "Inclination(deg)": 45.0,
        "Latitude(deg)": 13.815255341103265,
        "Longitude(deg)": -41.044860643987235,
        "Mean Anomaly(deg)": 19.70216271374445,
        "RAAN(deg)": 44.996887595893675,
        "Satellite Name": "Constellation 1 199",
        "Satellite Number": 199,
        "Semi-Major Axis(m)": 7083131.272910544,
        "Time(s)": 55
    },
    {
        "Altitude(m)": 702692.2183848266,
        "Argument of Periapsis(deg)": 0.0033570883497427146,
        "Eccentricity": 0.0,
        "Inclination(deg)": 45.0,
        "Latitude(deg)": 13.857145656969484,
        "Longitude(deg)": -41.00351395700454,
        "Mean Anomaly(deg)": 19.76286385399434,
        "RAAN(deg)": 44.99683100672811,
        "Satellite Name": "Constellation 1 199",
        "Satellite Number": 199,
        "Semi-Major Axis(m)": 7083131.272910544,
        "Time(s)": 56
    }
]